[
    {
        "Altitude(m)": 611965.217805302,
        "Argument of Periapsis(deg)": 0.0,
        "Eccentricity": 0.0,
        "Inclination(deg)": 60.0,
        "Latitude(deg)": 59.14025992666405,
        "Longitude(deg)": 158.96995933812465,
        "Mean Anomaly(deg)": 81.8182,
        "RAAN(deg)": 184.99999999999997,
        "Satellite Name": "Test1 819",
        "Satellite Number": 819,
        "Semi-Major Axis(m)": 6980739.136638005,
        "Time(s)": 0
    },
    {
        "Altitude(m)": 611995.842664846,
        "Argument of Periapsis(deg)": 0.00010418945913296404,
        "Eccentricity": 0.0,
        "Inclination(deg)": 60.0,
        "Latitude(deg)": 59.28335821342694,
        "Longitude(deg)": 160.1033255588637,
        "Mean Anomaly(deg)": 82.43830614546187,
        "RAAN(deg)": 184.99957995086024,
        "Satellite Name": "Test1 819",
        "Satellite Number": 819,
        "Semi-Major Axis(m)": 6980739.136638005,
        "Time(s)": 10
    }
]